ONEWEB-0283             
1 49001U 21060AL  26084.41269976  .00000058  00000+0  11790-3 0  9990
2 49001  87.9024 245.4344 0001856 101.8269 258.3070 13.16594427228592
ONEWEB-0284             
1 49002U 21060AM  26084.40637291  .00000025  00000+0  32284-4 0  9995
2 49002  87.9028 245.4273 0001846  87.6675 272.4668 13.16594807228579
ONEWEB-0285             
1 49075U 21075A   26084.50432674 -.00000319  00000+0 -92199-3 0  9998
2 49075  87.9013   7.2739 0001863  78.6933 281.4405 13.12444376224239
ONEWEB-0286             
1 49076U 21075B   26084.48640149 -.00000033  00000+0 -12761-3 0  9994
2 49076  87.9003   7.3028 0001585  75.7968 284.3337 13.12443878223587
ONEWEB-0287             
1 49077U 21075C   26084.56093892  .00000074  00000+0  15850-3 0  9996
2 49077  87.9173  22.4724 0001539  69.1446 290.9850 13.17648859222611
ONEWEB-0288             
1 49078U 21075D   26084.53907550  .00000499  00000+0  13530-2 0  9992
2 49078  87.9013   7.2615 0001851  75.2828 284.8505 13.12444683224215
ONEWEB-0289             
1 49079U 21075E   26084.52367352  .00000091  00000+0  20072-3 0  9990
2 49079  87.9179  22.4926 0002233  73.1776 286.9600 13.17649339223181
ONEWEB-0290             
1 49080U 21075F   26084.57275303  .00000085  00000+0  18626-3 0  9996
2 49080  87.9181  22.4519 0002467  77.2192 282.9215 13.17650484222607
ONEWEB-0291             
1 49081U 21075G   26084.32975836  .00000084  00000+0  18431-3 0  9991
2 49081  87.9179  22.5084 0001830  67.2129 292.9196 13.17649575222568
ONEWEB-0293             
1 49082U 21075H   26084.58287574  .00000069  00000+0  14427-3 0  9999
2 49082  87.9171  22.4677 0001970  75.6585 284.4765 13.17650485222629
ONEWEB-0294             
1 49083U 21075J   26084.54585694  .00000437  00000+0  11780-2 0  9997
2 49083  87.9016   7.2629 0002129  73.3767 286.7595 13.12443008223601
ONEWEB-0295             
1 49084U 21075K   26084.58202241  .00000075  00000+0  16115-3 0  9992
2 49084  87.9170  22.4725 0001709  67.9229 292.2084 13.17651215222581
ONEWEB-0296             
1 49085U 21075L   26084.52551065  .00000160  00000+0  41027-3 0  9993
2 49085  87.9020   7.2708 0001753  67.4064 292.7250 13.12445219223603
ONEWEB-0297             
1 49086U 21075M   26084.47977516  .00000135  00000+0  34111-3 0  9999
2 49086  87.9006   7.3028 0001751  75.7803 284.3520 13.12442914224208
ONEWEB-0298             
1 49087U 21075N   26084.58638832  .00000198  00000+0  47603-3 0  9996
2 49087  87.9174  22.4686 0001730  81.6924 278.4404 13.17650291222612
ONEWEB-0299             
1 49088U 21075P   26084.58793730 -.00000004  00000+0 -43710-4 0  9990
2 49088  87.9181  22.4407 0001734  75.6168 284.5156 13.17649139222597
ONEWEB-0300             
1 49089U 21075Q   26084.47214019  .00000330  00000+0  88134-3 0  9995
2 49089  87.9016   7.2741 0001586  88.1829 271.9481 13.12444071224221
