[{"OBJECT_NAME":"ONEWEB-0283","OBJECT_ID":"2021-060AL","EPOCH":"2026-03-25T09:54:17.259264","MEAN_MOTION":13.16594427,"ECCENTRICITY":0.00018567,"INCLINATION":87.9024,"RA_OF_ASC_NODE":245.4344,"ARG_OF_PERICENTER":101.8269,"MEAN_ANOMALY":258.307,"EPHEMERIS_TYPE":0,"CLASSIFICATION_TYPE":"U","NORAD_CAT_ID":49001,"ELEMENT_SET_NO":999,"REV_AT_EPOCH":22859,"BSTAR":0.00011790191,"MEAN_MOTION_DOT":5.8e-7,"MEAN_MOTION_DDOT":0},{"OBJECT_NAME":"ONEWEB-0284","OBJECT_ID":"2021-060AM","EPOCH":"2026-03-25T09:45:10.619424","MEAN_MOTION":13.16594807,"ECCENTRICITY":0.00018468,"INCLINATION":87.9028,"RA_OF_ASC_NODE":245.4273,"ARG_OF_PERICENTER":87.6675,"MEAN_ANOMALY":272.4668,"EPHEMERIS_TYPE":0,"CLASSIFICATION_TYPE":"U","NORAD_CAT_ID":49002,"ELEMENT_SET_NO":999,"REV_AT_EPOCH":22857,"BSTAR":3.22841e-5,"MEAN_MOTION_DOT":2.5e-7,"MEAN_MOTION_DDOT":0},{"OBJECT_NAME":"ONEWEB-0285","OBJECT_ID":"2021-075A","EPOCH":"2026-03-25T12:06:13.830336","MEAN_MOTION":13.12444376,"ECCENTRICITY":0.00018631,"INCLINATION":87.9013,"RA_OF_ASC_NODE":7.2739,"ARG_OF_PERICENTER":78.6933,"MEAN_ANOMALY":281.4405,"EPHEMERIS_TYPE":0,"CLASSIFICATION_TYPE":"U","NORAD_CAT_ID":49075,"ELEMENT_SET_NO":999,"REV_AT_EPOCH":22423,"BSTAR":-0.00092198925,"MEAN_MOTION_DOT":-3.19e-6,"MEAN_MOTION_DDOT":0},{"OBJECT_NAME":"ONEWEB-0286","OBJECT_ID":"2021-075B","EPOCH":"2026-03-25T11:40:25.088736","MEAN_MOTION":13.12443878,"ECCENTRICITY":0.00015853,"INCLINATION":87.9003,"RA_OF_ASC_NODE":7.3028,"ARG_OF_PERICENTER":75.7968,"MEAN_ANOMALY":284.3337,"EPHEMERIS_TYPE":0,"CLASSIFICATION_TYPE":"U","NORAD_CAT_ID":49076,"ELEMENT_SET_NO":999,"REV_AT_EPOCH":22358,"BSTAR":-0.00012761382,"MEAN_MOTION_DOT":-3.3e-7,"MEAN_MOTION_DDOT":0},{"OBJECT_NAME":"ONEWEB-0287","OBJECT_ID":"2021-075C","EPOCH":"2026-03-25T13:27:45.122688","MEAN_MOTION":13.17648859,"ECCENTRICITY":0.00015397,"INCLINATION":87.9173,"RA_OF_ASC_NODE":22.4724,"ARG_OF_PERICENTER":69.1446,"MEAN_ANOMALY":290.985,"EPHEMERIS_TYPE":0,"CLASSIFICATION_TYPE":"U","NORAD_CAT_ID":49077,"ELEMENT_SET_NO":999,"REV_AT_EPOCH":22261,"BSTAR":0.00015849573,"MEAN_MOTION_DOT":7.4e-7,"MEAN_MOTION_DDOT":0},{"OBJECT_NAME":"ONEWEB-0288","OBJECT_ID":"2021-075D","EPOCH":"2026-03-25T12:56:16.123200","MEAN_MOTION":13.12444683,"ECCENTRICITY":0.00018516,"INCLINATION":87.9013,"RA_OF_ASC_NODE":7.2615,"ARG_OF_PERICENTER":75.2828,"MEAN_ANOMALY":284.8505,"EPHEMERIS_TYPE":0,"CLASSIFICATION_TYPE":"U","NORAD_CAT_ID":49078,"ELEMENT_SET_NO":999,"REV_AT_EPOCH":22421,"BSTAR":0.0013529693,"MEAN_MOTION_DOT":4.99e-6,"MEAN_MOTION_DDOT":0},{"OBJECT_NAME":"ONEWEB-0289","OBJECT_ID":"2021-075E","EPOCH":"2026-03-25T12:34:05.392128","MEAN_MOTION":13.17649339,"ECCENTRICITY":0.00022331,"INCLINATION":87.9179,"RA_OF_ASC_NODE":22.4926,"ARG_OF_PERICENTER":73.1776,"MEAN_ANOMALY":286.96,"EPHEMERIS_TYPE":0,"CLASSIFICATION_TYPE":"U","NORAD_CAT_ID":49079,"ELEMENT_SET_NO":999,"REV_AT_EPOCH":22318,"BSTAR":0.00020072083,"MEAN_MOTION_DOT":9.1e-7,"MEAN_MOTION_DDOT":0},{"OBJECT_NAME":"ONEWEB-0290","OBJECT_ID":"2021-075F","EPOCH":"2026-03-25T13:44:45.861792","MEAN_MOTION":13.17650484,"ECCENTRICITY":0.00024672,"INCLINATION":87.9181,"RA_OF_ASC_NODE":22.4519,"ARG_OF_PERICENTER":77.2192,"MEAN_ANOMALY":282.9215,"EPHEMERIS_TYPE":0,"CLASSIFICATION_TYPE":"U","NORAD_CAT_ID":49080,"ELEMENT_SET_NO":999,"REV_AT_EPOCH":22260,"BSTAR":0.00018626023,"MEAN_MOTION_DOT":8.5e-7,"MEAN_MOTION_DDOT":0},{"OBJECT_NAME":"ONEWEB-0291","OBJECT_ID":"2021-075G","EPOCH":"2026-03-25T07:54:51.122304","MEAN_MOTION":13.17649575,"ECCENTRICITY":0.00018308,"INCLINATION":87.9179,"RA_OF_ASC_NODE":22.5084,"ARG_OF_PERICENTER":67.2129,"MEAN_ANOMALY":292.9196,"EPHEMERIS_TYPE":0,"CLASSIFICATION_TYPE":"U","NORAD_CAT_ID":49081,"ELEMENT_SET_NO":999,"REV_AT_EPOCH":22256,"BSTAR":0.00018430827,"MEAN_MOTION_DOT":8.4e-7,"MEAN_MOTION_DDOT":0},{"OBJECT_NAME":"ONEWEB-0293","OBJECT_ID":"2021-075H","EPOCH":"2026-03-25T13:59:20.463936","MEAN_MOTION":13.17650485,"ECCENTRICITY":0.00019706,"INCLINATION":87.9171,"RA_OF_ASC_NODE":22.4677,"ARG_OF_PERICENTER":75.6585,"MEAN_ANOMALY":284.4765,"EPHEMERIS_TYPE":0,"CLASSIFICATION_TYPE":"U","NORAD_CAT_ID":49082,"ELEMENT_SET_NO":999,"REV_AT_EPOCH":22262,"BSTAR":0.0001442678,"MEAN_MOTION_DOT":6.9e-7,"MEAN_MOTION_DDOT":0},{"OBJECT_NAME":"ONEWEB-0294","OBJECT_ID":"2021-075J","EPOCH":"2026-03-25T13:06:02.039616","MEAN_MOTION":13.12443008,"ECCENTRICITY":0.00021297,"INCLINATION":87.9016,"RA_OF_ASC_NODE":7.2629,"ARG_OF_PERICENTER":73.3767,"MEAN_ANOMALY":286.7595,"EPHEMERIS_TYPE":0,"CLASSIFICATION_TYPE":"U","NORAD_CAT_ID":49083,"ELEMENT_SET_NO":999,"REV_AT_EPOCH":22360,"BSTAR":0.0011780346,"MEAN_MOTION_DOT":4.37e-6,"MEAN_MOTION_DDOT":0},{"OBJECT_NAME":"ONEWEB-0295","OBJECT_ID":"2021-075K","EPOCH":"2026-03-25T13:58:06.736224","MEAN_MOTION":13.17651215,"ECCENTRICITY":0.00017097,"INCLINATION":87.917,"RA_OF_ASC_NODE":22.4725,"ARG_OF_PERICENTER":67.9229,"MEAN_ANOMALY":292.2084,"EPHEMERIS_TYPE":0,"CLASSIFICATION_TYPE":"U","NORAD_CAT_ID":49084,"ELEMENT_SET_NO":999,"REV_AT_EPOCH":22258,"BSTAR":0.0001611525,"MEAN_MOTION_DOT":7.5e-7,"MEAN_MOTION_DDOT":0},{"OBJECT_NAME":"ONEWEB-0296","OBJECT_ID":"2021-075L","EPOCH":"2026-03-25T12:36:44.120160","MEAN_MOTION":13.12445219,"ECCENTRICITY":0.00017536,"INCLINATION":87.902,"RA_OF_ASC_NODE":7.2708,"ARG_OF_PERICENTER":67.4064,"MEAN_ANOMALY":292.725,"EPHEMERIS_TYPE":0,"CLASSIFICATION_TYPE":"U","NORAD_CAT_ID":49085,"ELEMENT_SET_NO":999,"REV_AT_EPOCH":22360,"BSTAR":0.00041026556,"MEAN_MOTION_DOT":1.6e-6,"MEAN_MOTION_DDOT":0},{"OBJECT_NAME":"ONEWEB-0297","OBJECT_ID":"2021-075M","EPOCH":"2026-03-25T11:30:52.573824","MEAN_MOTION":13.12442914,"ECCENTRICITY":0.00017518,"INCLINATION":87.9006,"RA_OF_ASC_NODE":7.3028,"ARG_OF_PERICENTER":75.7803,"MEAN_ANOMALY":284.352,"EPHEMERIS_TYPE":0,"CLASSIFICATION_TYPE":"U","NORAD_CAT_ID":49086,"ELEMENT_SET_NO":999,"REV_AT_EPOCH":22420,"BSTAR":0.00034111201,"MEAN_MOTION_DOT":1.35e-6,"MEAN_MOTION_DDOT":0},{"OBJECT_NAME":"ONEWEB-0298","OBJECT_ID":"2021-075N","EPOCH":"2026-03-25T14:04:23.950848","MEAN_MOTION":13.17650291,"ECCENTRICITY":0.00017308,"INCLINATION":87.9174,"RA_OF_ASC_NODE":22.4686,"ARG_OF_PERICENTER":81.6924,"MEAN_ANOMALY":278.4404,"EPHEMERIS_TYPE":0,"CLASSIFICATION_TYPE":"U","NORAD_CAT_ID":49087,"ELEMENT_SET_NO":999,"REV_AT_EPOCH":22261,"BSTAR":0.00047603136,"MEAN_MOTION_DOT":1.98e-6,"MEAN_MOTION_DDOT":0},{"OBJECT_NAME":"ONEWEB-0299","OBJECT_ID":"2021-075P","EPOCH":"2026-03-25T14:06:37.782720","MEAN_MOTION":13.17649139,"ECCENTRICITY":0.00017344,"INCLINATION":87.9181,"RA_OF_ASC_NODE":22.4407,"ARG_OF_PERICENTER":75.6168,"MEAN_ANOMALY":284.5156,"EPHEMERIS_TYPE":0,"CLASSIFICATION_TYPE":"U","NORAD_CAT_ID":49088,"ELEMENT_SET_NO":999,"REV_AT_EPOCH":22259,"BSTAR":-4.3710367e-5,"MEAN_MOTION_DOT":-4.0e-8,"MEAN_MOTION_DDOT":0},{"OBJECT_NAME":"ONEWEB-0300","OBJECT_ID":"2021-075Q","EPOCH":"2026-03-25T11:19:52.912416","MEAN_MOTION":13.12444071,"ECCENTRICITY":0.0001586,"INCLINATION":87.9016,"RA_OF_ASC_NODE":7.2741,"ARG_OF_PERICENTER":88.1829,"MEAN_ANOMALY":271.9481,"EPHEMERIS_TYPE":0,"CLASSIFICATION_TYPE":"U","NORAD_CAT_ID":49089,"ELEMENT_SET_NO":999,"REV_AT_EPOCH":22422,"BSTAR":0.00088134131,"MEAN_MOTION_DOT":3.3e-6,"MEAN_MOTION_DDOT":0}]
